{"type": "FeatureCollection", "features": [ {"type": "Feature", "properties": {"norad_id": 34375, "name": "IRIDIUM 33 DEB", "group": "iridium-33-debris", "lat": -4.5139612797164945, "lon": 6.202030809093632, "alt_km": 773.2381023632188, "timestamp": "2025-12-04T17:48:40.549631+00:00", "meta": {"OBJECT_NAME": "IRIDIUM 33 DEB", "OBJECT_ID": "1997-051FT", "EPOCH": "2025-12-04T02:19:13.605600", "MEAN_MOTION": 14.17969108, "ECCENTRICITY": 0.01025635, "INCLINATION": 86.4331, "RA_OF_ASC_NODE": 186.18, "ARG_OF_PERICENTER": 153.93, "MEAN_ANOMALY": 337.07, "EPHEMERIS_TYPE": 0, "CLASSIFICATION_TYPE": "U", "NORAD_CAT_ID": 34375, "ELEMENT_SET_NO": 999, "REV_AT_EPOCH": 86589, "BSTAR": 0.00070164929, "MEAN_MOTION_DOT": 1.531e-05, "MEAN_MOTION_DDOT": 0}, "tle": {"line1": "1 34375U 97051FT  25338.09668525  .00001531  00000+0  70165-3 0  9997", "line2": "2 34375  86.4331 186.1800 0102563 153.9300 337.0700 14.17969108865893"}}, "geometry": {"type": "Point", "coordinates": [6.202030809093632, -4.5139612797164945]}}, {"type": "Feature", "properties": {"norad_id": 34376, "name": "IRIDIUM 33 DEB", "group": "iridium-33-debris", "lat": -3.2210335794326377, "lon": 9.926819385470921, "alt_km": 706.63246772191, "timestamp": "2025-12-04T17:48:40.549641+00:00", "meta": {"OBJECT_NAME": "IRIDIUM 33 DEB", "OBJECT_ID": "1997-051FU", "EPOCH": "2025-12-04T06:19:49.812672", "MEAN_MOTION": 14.62377993, "ECCENTRICITY": 0.00261889, "INCLINATION": 86.2991, "RA_OF_ASC_NODE": 10.3504, "ARG_OF_PERICENTER": 195.5918, "MEAN_ANOMALY": 164.449, "EPHEMERIS_TYPE": 0, "CLASSIFICATION_TYPE": "U", "NORAD_CAT_ID": 34376, "ELEMENT_SET_NO": 999, "REV_AT_EPOCH": 87883, "BSTAR": 0.0035031182, "MEAN_MOTION_DOT": 0.00017843, "MEAN_MOTION_DDOT": 0}, "tle": {"line1": "1 34376U 97051FU  25338.26377098  .00017843  00000+0  35031-2 0  9994", "line2": "2 34376  86.2991  10.3504 0026188 195.5918 164.4490 14.62377993878839"}}, "geometry": {"type": "Point", "coordinates": [9.926819385470921, -3.2210335794326377]}}, {"type": "Feature", "properties": {"norad_id": 34486, "name": "IRIDIUM 33 DEB", "group": "iridium-33-debris", "lat": -16.60550078440984, "lon": 14.637649419215716, "alt_km": 594.8684286795287, "timestamp": "2025-12-04T17:48:40.549651+00:00", "meta": {"OBJECT_NAME": "IRIDIUM 33 DEB", "OBJECT_ID": "1997-051GB", "EPOCH": "2025-12-04T03:41:51.118368", "MEAN_MOTION": 14.951815, "ECCENTRICITY": 0.00130231, "INCLINATION": 86.394, "RA_OF_ASC_NODE": 15.9863, "ARG_OF_PERICENTER": 140.9136, "MEAN_ANOMALY": 279.2911, "EPHEMERIS_TYPE": 0, "CLASSIFICATION_TYPE": "U", "NORAD_CAT_ID": 34486, "ELEMENT_SET_NO": 999, "REV_AT_EPOCH": 88858, "BSTAR": 0.0048037162, "MEAN_MOTION_DOT": 0.00053192, "MEAN_MOTION_DDOT": 0}, "tle": {"line1": "1 34486U 97051GB  25338.15406387  .00053192  00000+0  48037-2 0  9995", "line2": "2 34486  86.3940  15.9863 0013023 140.9136 279.2911 14.95181500888584"}}, "geometry": {"type": "Point", "coordinates": [14.637649419215716, -16.60550078440984]}}, {"type": "Feature", "properties": {"norad_id": 34487, "name": "IRIDIUM 33 DEB", "group": "iridium-33-debris", "lat": 62.14252865877238, "lon": 22.768340337653612, "alt_km": 742.3753198018503, "timestamp": "2025-12-04T17:48:40.549661+00:00", "meta": {"OBJECT_NAME": "IRIDIUM 33 DEB", "OBJECT_ID": "1997-051GC", "EPOCH": "2025-12-03T10:12:00.081216", "MEAN_MOTION": 14.43196495, "ECCENTRICITY": 0.00319082, "INCLINATION": 86.3443, "RA_OF_ASC_NODE": 16.3873, "ARG_OF_PERICENTER": 157.9365, "MEAN_ANOMALY": 266.0119, "EPHEMERIS_TYPE": 0, "CLASSIFICATION_TYPE": "U", "NORAD_CAT_ID": 34487, "ELEMENT_SET_NO": 999, "REV_AT_EPOCH": 88114, "BSTAR": 0.00029137047, "MEAN_MOTION_DOT": 1.005e-05, "MEAN_MOTION_DDOT": 0}, "tle": {"line1": "1 34487U 97051GC  25337.42500094  .00001005  00000+0  29137-3 0  9992", "line2": "2 34487  86.3443  16.3873 0031908 157.9365 266.0119 14.43196495881144"}}, "geometry": {"type": "Point", "coordinates": [22.768340337653612, 62.14252865877238]}}, {"type": "Feature", "properties": {"norad_id": 34488, "name": "IRIDIUM 33 DEB", "group": "iridium-33-debris", "lat": 65.93788775197496, "lon": 121.49190833609518, "alt_km": 472.9738849164987, "timestamp": "2025-12-04T17:48:40.549672+00:00", "meta": {"OBJECT_NAME": "IRIDIUM 33 DEB", "OBJECT_ID": "1997-051GD", "EPOCH": "2025-12-04T04:43:46.394400", "MEAN_MOTION": 15.26377687, "ECCENTRICITY": 0.00155256, "INCLINATION": 86.3256, "RA_OF_ASC_NODE": 310.0352, "ARG_OF_PERICENTER": 64.3641, "MEAN_ANOMALY": 295.9208, "EPHEMERIS_TYPE": 0, "CLASSIFICATION_TYPE": "U", "NORAD_CAT_ID": 34488, "ELEMENT_SET_NO": 999, "REV_AT_EPOCH": 89109, "BSTAR": 0.0085126879, "MEAN_MOTION_DOT": 0.00228455, "MEAN_MOTION_DDOT": 0}, "tle": {"line1": "1 34488U 97051GD  25338.19706475  .00228455  00000+0  85127-2 0  9999", "line2": "2 34488  86.3256 310.0352 0015525  64.3641 295.9208 15.26377687891099"}}, "geometry": {"type": "Point", "coordinates": [121.49190833609518, 65.93788775197496]}}, {"type": "Feature", "properties": {"norad_id": 34492, "name": "IRIDIUM 33 DEB", "group": "iridium-33-debris", "lat": -58.6255169591818, "lon": -27.945708402873343, "alt_km": 704.5299918139963, "timestamp": "2025-12-04T17:48:40.549683+00:00", "meta": {"OBJECT_NAME": "IRIDIUM 33 DEB", "OBJECT_ID": "1997-051GH", "EPOCH": "2025-12-04T06:22:25.669632", "MEAN_MOTION": 14.2534836, "ECCENTRICITY": 0.0190073, "INCLINATION": 86.4709, "RA_OF_ASC_NODE": 338.0551, "ARG_OF_PERICENTER": 265.7011, "MEAN_ANOMALY": 110.4059, "EPHEMERIS_TYPE": 0, "CLASSIFICATION_TYPE": "U", "NORAD_CAT_ID": 34492, "ELEMENT_SET_NO": 999, "REV_AT_EPOCH": 84938, "BSTAR": 0.015697091, "MEAN_MOTION_DOT": 0.00044922, "MEAN_MOTION_DDOT": 0}, "tle": {"line1": "1 34492U 97051GH  25338.26557488  .00044922  00000+0  15697-1 0  9999", "line2": "2 34492  86.4709 338.0551 0190073 265.7011 110.4059 14.25348360849383"}}, "geometry": {"type": "Point", "coordinates": [-27.945708402873343, -58.6255169591818]}}, {"type": "Feature", "properties": {"norad_id": 34497, "name": "IRIDIUM 33 DEB", "group": "iridium-33-debris", "lat": 54.60193391834113, "lon": -129.43774070236063, "alt_km": 823.1793150382719, "timestamp": "2025-12-04T17:48:40.549693+00:00", "meta": {"OBJECT_NAME": "IRIDIUM 33 DEB", "OBJECT_ID": "1997-051GN", "EPOCH": "2025-12-04T05:42:21.206016", "MEAN_MOTION": 14.27416416, "ECCENTRICITY": 0.00797482, "INCLINATION": 86.2784, "RA_OF_ASC_NODE": 56.0329, "ARG_OF_PERICENTER": 7.2272, "MEAN_ANOMALY": 46.8518, "EPHEMERIS_TYPE": 0, "CLASSIFICATION_TYPE": "U", "NORAD_CAT_ID": 34497, "ELEMENT_SET_NO": 999, "REV_AT_EPOCH": 86762, "BSTAR": 0.0011016015, "MEAN_MOTION_DOT": 2.812e-05, "MEAN_MOTION_DDOT": 0}, "tle": {"line1": "1 34497U 97051GN  25338.23774544  .00002812  00000+0  11016-2 0  9999", "line2": "2 34497  86.2784  56.0329 0079748   7.2272  46.8518 14.27416416867621"}}, "geometry": {"type": "Point", "coordinates": [-129.43774070236063, 54.60193391834113]}}, {"type": "Feature", "properties": {"norad_id": 34508, "name": "IRIDIUM 33 DEB", "group": "iridium-33-debris", "lat": -31.413179136728985, "lon": 103.81072177315077, "alt_km": 799.8987698934416, "timestamp": "2025-12-04T17:48:40.549703+00:00", "meta": {"OBJECT_NAME": "IRIDIUM 33 DEB", "OBJECT_ID": "1997-051GZ", "EPOCH": "2025-12-04T07:56:26.471616", "MEAN_MOTION": 14.38300122, "ECCENTRICITY": 0.00655219, "INCLINATION": 86.3699, "RA_OF_ASC_NODE": 106.207, "ARG_OF_PERICENTER": 200.3057, "MEAN_ANOMALY": 159.5535, "EPHEMERIS_TYPE": 0, "CLASSIFICATION_TYPE": "U", "NORAD_CAT_ID": 34508, "ELEMENT_SET_NO": 999, "REV_AT_EPOCH": 87188, "BSTAR": 0.0041043781, "MEAN_MOTION_DOT": 0.00012833, "MEAN_MOTION_DDOT": 0}, "tle": {"line1": "1 34508U 97051GZ  25338.33086194  .00012833  00000+0  41044-2 0  9998", "line2": "2 34508  86.3699 106.2070 0065521 200.3057 159.5535 14.38300122871884"}}, "geometry": {"type": "Point", "coordinates": [103.81072177315077, -31.413179136728985]}}, {"type": "Feature", "properties": {"norad_id": 34521, "name": "IRIDIUM 33 DEB", "group": "iridium-33-debris", "lat": 31.062720942140366, "lon": -148.11590660677535, "alt_km": 681.6175984160627, "timestamp": "2025-12-04T17:48:40.549713+00:00", "meta": {"OBJECT_NAME": "IRIDIUM 33 DEB", "OBJECT_ID": "1997-051HN", "EPOCH": "2025-12-04T05:38:41.083008", "MEAN_MOTION": 14.63246221, "ECCENTRICITY": 0.0001091, "INCLINATION": 86.3811, "RA_OF_ASC_NODE": 34.2918, "ARG_OF_PERICENTER": 285.1475, "MEAN_ANOMALY": 74.9616, "EPHEMERIS_TYPE": 0, "CLASSIFICATION_TYPE": "U", "NORAD_CAT_ID": 34521, "ELEMENT_SET_NO": 999, "REV_AT_EPOCH": 88348, "BSTAR": 0.0023484201, "MEAN_MOTION_DOT": 0.0001213, "MEAN_MOTION_DDOT": 0}, "tle": {"line1": "1 34521U 97051HN  25338.23519772  .00012130  00000+0  23484-2 0  9993", "line2": "2 34521  86.3811  34.2918 0001091 285.1475  74.9616 14.63246221883489"}}, "geometry": {"type": "Point", "coordinates": [-148.11590660677535, 31.062720942140366]}}, {"type": "Feature", "properties": {"norad_id": 34525, "name": "IRIDIUM 33 DEB", "group": "iridium-33-debris", "lat": -15.064112633014394, "lon": -128.76502329279535, "alt_km": 753.1814077614745, "timestamp": "2025-12-04T17:48:40.549724+00:00", "meta": {"OBJECT_NAME": "IRIDIUM 33 DEB", "OBJECT_ID": "1997-051HS", "EPOCH": "2025-12-04T05:30:34.735680", "MEAN_MOTION": 14.42873739, "ECCENTRICITY": 0.00064585, "INCLINATION": 86.3736, "RA_OF_ASC_NODE": 50.4756, "ARG_OF_PERICENTER": 114.4855, "MEAN_ANOMALY": 299.6591, "EPHEMERIS_TYPE": 0, "CLASSIFICATION_TYPE": "U", "NORAD_CAT_ID": 34525, "ELEMENT_SET_NO": 999, "REV_AT_EPOCH": 87965, "BSTAR": 0.00074624001, "MEAN_MOTION_DOT": 2.511e-05, "MEAN_MOTION_DDOT": 0}, "tle": {"line1": "1 34525U 97051HS  25338.22956870  .00002511  00000+0  74624-3 0  9995", "line2": "2 34525  86.3736  50.4756 0006458 114.4855 299.6591 14.42873739879656"}}, "geometry": {"type": "Point", "coordinates": [-128.76502329279535, -15.064112633014394]}}]}